{
  "norad_id": 68976,
  "name": "STARLINK-36735",
  "history": [
    {
      "epoch": "2026-05-12T20:00:01.999008Z",
      "apogee_km": 328.3999490740862,
      "perigee_km": 327.6408120586075,
      "latitude_deg": 50.298286222146636,
      "longitude_deg": -135.2758049679298,
      "height_km": 333.5198734247075,
      "semi_major_axis_km": 6706.157380566347,
      "eccentricity": 5.66e-05,
      "inclination_deg": 53.1589,
      "raan_deg": 331.5298,
      "arg_perigee_deg": 58.8573,
      "mean_anomaly_deg": 14.7255,
      "mean_motion_rev_day": 15.80855411
    }
  ]
}