STARLINK-36735          
1 68976U 26099AB  26132.83335648  .00047049  00000+0  24080-3 0  9996
2 68976  53.1589 331.5298 0000566  58.8573  14.7255 15.80855412  3032
